[{"OBJECT_NAME":"STARLINK-1202","OBJECT_ID":"2020-012F","EPOCH":"2026-03-09T07:07:07.994784","MEAN_MOTION":15.30193024,"ECCENTRICITY":0.00015762,"INCLINATION":53.1616,"RA_OF_ASC_NODE":41.0757,"ARG_OF_PERICENTER":83.8145,"MEAN_ANOMALY":276.3036,"EPHEMERIS_TYPE":0,"CLASSIFICATION_TYPE":"U","NORAD_CAT_ID":45183,"ELEMENT_SET_NO":999,"REV_AT_EPOCH":33489,"BSTAR":-9.078485e-6,"MEAN_MOTION_DOT":-6.28e-6,"MEAN_MOTION_DDOT":0},{"OBJECT_NAME":"VSP ROSE","OBJECT_ID":"2024-043AC","EPOCH":"2026-03-09T21:48:06.922944","MEAN_MOTION":15.27746075,"ECCENTRICITY":0.00099339,"INCLINATION":97.5443,"RA_OF_ASC_NODE":203.927,"ARG_OF_PERICENTER":232.2702,"MEAN_ANOMALY":127.7637,"EPHEMERIS_TYPE":0,"CLASSIFICATION_TYPE":"U","NORAD_CAT_ID":59124,"ELEMENT_SET_NO":999,"REV_AT_EPOCH":11182,"BSTAR":0.00025731354,"MEAN_MOTION_DOT":6.907e-5,"MEAN_MOTION_DDOT":0}]
